GOES 18
1 51850U 22021A   26180.48725402  .00000108  00000+0  00000+0 0  9992
2 51850   0.0211 186.7795 0000521 295.8146 193.3879  1.00271171  6715
